[{"OBJECT_NAME":"NUSAT-33 (ALBANIA-2)","OBJECT_ID":"2023-001AQ","EPOCH":"2026-03-09T22:33:27.663264","MEAN_MOTION":15.26923259,"ECCENTRICITY":0.00076854,"INCLINATION":97.3178,"RA_OF_ASC_NODE":131.8399,"ARG_OF_PERICENTER":52.546,"MEAN_ANOMALY":307.6477,"EPHEMERIS_TYPE":0,"CLASSIFICATION_TYPE":"U","NORAD_CAT_ID":55047,"ELEMENT_SET_NO":999,"REV_AT_EPOCH":17716,"BSTAR":0.0004947656,"MEAN_MOTION_DOT":0.00013029,"MEAN_MOTION_DDOT":0},{"OBJECT_NAME":"STARLINK-36258","OBJECT_ID":"2025-299C","EPOCH":"2026-03-09T07:06:36.567648","MEAN_MOTION":15.2762701,"ECCENTRICITY":0.00011749,"INCLINATION":43.0009,"RA_OF_ASC_NODE":171.4269,"ARG_OF_PERICENTER":249.4458,"MEAN_ANOMALY":110.6268,"EPHEMERIS_TYPE":0,"CLASSIFICATION_TYPE":"U","NORAD_CAT_ID":67104,"ELEMENT_SET_NO":999,"REV_AT_EPOCH":1305,"BSTAR":0.0011733066,"MEAN_MOTION_DOT":0.00032212,"MEAN_MOTION_DDOT":0}]
